ONEWEB-0706             
1 61611U 24188T   25227.62948869  .00000656  00000+0  18424-2 0  9995
2 61611  87.8778  97.2150 0001101  85.9877 274.1376 13.10373370 43367
ONEWEB-0707             
1 61612U 24188U   25227.86518941  .00000558  00000+0  15608-2 0  9998
2 61612  87.8774  97.1333 0001099  81.3148 278.8104 13.10374274 43334
ONEWEB-0708             
1 61613U 24188V   25227.88344978 -.00000289  00000+0 -86300-3 0  9999
2 61613  87.8804  97.1645 0001195 104.4465 255.6795 13.10370399 43312
